STARLINK-1331           
1 45578U 20025AZ  26076.44359940  .00068389  00000+0  12058-2 0  9998
2 45578  53.0532  28.0126 0005661 110.2589 249.9028 15.49786894326884
STARLINK-1333           
1 45580U 20025BB  26076.59645487 -.00000560  00000+0 -67843-5 0  9995
2 45580  53.1618  41.0811 0001164 103.0289 257.0842 15.30195674326716
STARLINK-1335           
1 45581U 20025BC  26076.41435338  .00005520  00000+0  20328-3 0  9993
2 45581  53.1577  39.2147 0001749  81.2630 278.8569 15.29389450326710
STARLINK-1337           
1 45582U 20025BD  26076.57164446  .00095478  00000+0  11803-2 0  9998
2 45582  53.0538  23.4434 0005295 109.7407 250.4176 15.59359021326948
STARLINK-1347           
1 45586U 20025BH  26076.45888848  .00096106  00000+0  13520-2 0  9995
2 45586  53.0458 351.9246 0005350  95.6350 264.5271 15.55899100327378
STARLINK-1364           
1 45589U 20025BL  26076.16645297  .00084545  00000+0  14198-2 0  9991
2 45589  53.0506  27.3143 0007831  90.6733 269.5173 15.51053837326854
STARLINK-1365           
1 45590U 20025BM  26076.23233095  .00070155  00000+0  13807-2 0  9998
2 45590  53.0520  57.5688 0004485  71.8426 288.3069 15.46626051326450
STARLINK-1443           
1 45660U 20035D   26076.57693680  .00047046  00000+0  18126-2 0  9996
2 45660  53.1378  28.5164 0003397  87.8351 272.3037 15.25903314319965
STARLINK-1446           
1 45663U 20035G   26076.38904490  .00013091  00000+0  29892-3 0  9998
2 45663  53.0248 322.7947 0000541 333.2655  26.8321 15.43228213320861
STARLINK-1448           
1 45665U 20035J   26076.37248671  .00101709  00000+0  15260-2 0  9998
2 45665  53.0509  15.6910 0008007 109.7964 250.3910 15.54096136320110
STARLINK-1451           
1 45668U 20035M   26076.15857257  .00027587  00000+0  16663-2 0  9992
2 45668  53.0542  32.3290 0002028  61.9312 298.1884 15.10513439319873
STARLINK-1452           
1 45669U 20035N   26076.43931328  .00076111  00000+0  15052-2 0  9994
2 45669  53.0323 344.7686 0006842  88.5982 271.5808 15.46434987320564
STARLINK-1453           
1 45670U 20035P   26076.42666437  .00100862  00000+0  14999-2 0  9991
2 45670  53.0477 336.0076 0005697  85.0852 275.0808 15.54361494320579
STARLINK-1454           
1 45671U 20035Q   26076.66668981  .00121761  00000+0  19070-2 0  9990
2 45671  53.0504  14.4713 0008329  94.5924 235.2193 15.52818888  5876
STARLINK-1456           
1 45673U 20035S   26076.09574489  .00071484  00000+0  12021-2 0  9993
2 45673  53.0500  10.7590 0002306 135.3603 224.7592 15.51118377320177
STARLINK-1457           
1 45674U 20035T   26076.66668981  .00114845  00000+0  57662-3 0  9998
2 45674  53.0468 342.4162 0007885 104.2619  54.6270 15.80870634  5941
