[{"OBJECT_NAME":"STARLINK-1331","OBJECT_ID":"2020-025AZ","EPOCH":"2026-03-17T10:38:46.988160","MEAN_MOTION":15.49786894,"ECCENTRICITY":0.00056613,"INCLINATION":53.0532,"RA_OF_ASC_NODE":28.0126,"ARG_OF_PERICENTER":110.2589,"MEAN_ANOMALY":249.9028,"EPHEMERIS_TYPE":0,"CLASSIFICATION_TYPE":"U","NORAD_CAT_ID":45578,"ELEMENT_SET_NO":999,"REV_AT_EPOCH":32688,"BSTAR":0.0012058162,"MEAN_MOTION_DOT":0.00068389,"MEAN_MOTION_DDOT":0},{"OBJECT_NAME":"STARLINK-1333","OBJECT_ID":"2020-025BB","EPOCH":"2026-03-17T14:18:53.700768","MEAN_MOTION":15.30195674,"ECCENTRICITY":0.0001164,"INCLINATION":53.1618,"RA_OF_ASC_NODE":41.0811,"ARG_OF_PERICENTER":103.0289,"MEAN_ANOMALY":257.0842,"EPHEMERIS_TYPE":0,"CLASSIFICATION_TYPE":"U","NORAD_CAT_ID":45580,"ELEMENT_SET_NO":999,"REV_AT_EPOCH":32671,"BSTAR":-6.78429e-6,"MEAN_MOTION_DOT":-5.6e-6,"MEAN_MOTION_DDOT":0},{"OBJECT_NAME":"STARLINK-1335","OBJECT_ID":"2020-025BC","EPOCH":"2026-03-17T09:56:40.132032","MEAN_MOTION":15.2938945,"ECCENTRICITY":0.00017495,"INCLINATION":53.1577,"RA_OF_ASC_NODE":39.2147,"ARG_OF_PERICENTER":81.263,"MEAN_ANOMALY":278.8569,"EPHEMERIS_TYPE":0,"CLASSIFICATION_TYPE":"U","NORAD_CAT_ID":45581,"ELEMENT_SET_NO":999,"REV_AT_EPOCH":32671,"BSTAR":0.00020328479,"MEAN_MOTION_DOT":5.52e-5,"MEAN_MOTION_DDOT":0},{"OBJECT_NAME":"STARLINK-1337","OBJECT_ID":"2020-025BD","EPOCH":"2026-03-17T13:43:10.081344","MEAN_MOTION":15.59359021,"ECCENTRICITY":0.00052954,"INCLINATION":53.0538,"RA_OF_ASC_NODE":23.4434,"ARG_OF_PERICENTER":109.7407,"MEAN_ANOMALY":250.4176,"EPHEMERIS_TYPE":0,"CLASSIFICATION_TYPE":"U","NORAD_CAT_ID":45582,"ELEMENT_SET_NO":999,"REV_AT_EPOCH":32694,"BSTAR":0.0011802541,"MEAN_MOTION_DOT":0.00095478,"MEAN_MOTION_DDOT":0},{"OBJECT_NAME":"STARLINK-1347","OBJECT_ID":"2020-025BH","EPOCH":"2026-03-17T11:00:47.964672","MEAN_MOTION":15.558991,"ECCENTRICITY":0.00053506,"INCLINATION":53.0458,"RA_OF_ASC_NODE":351.9246,"ARG_OF_PERICENTER":95.635,"MEAN_ANOMALY":264.5271,"EPHEMERIS_TYPE":0,"CLASSIFICATION_TYPE":"U","NORAD_CAT_ID":45586,"ELEMENT_SET_NO":999,"REV_AT_EPOCH":32737,"BSTAR":0.0013520101,"MEAN_MOTION_DOT":0.00096106,"MEAN_MOTION_DDOT":0},{"OBJECT_NAME":"STARLINK-1364","OBJECT_ID":"2020-025BL","EPOCH":"2026-03-17T03:59:41.536608","MEAN_MOTION":15.51053837,"ECCENTRICITY":0.00078313,"INCLINATION":53.0506,"RA_OF_ASC_NODE":27.3143,"ARG_OF_PERICENTER":90.6733,"MEAN_ANOMALY":269.5173,"EPHEMERIS_TYPE":0,"CLASSIFICATION_TYPE":"U","NORAD_CAT_ID":45589,"ELEMENT_SET_NO":999,"REV_AT_EPOCH":32685,"BSTAR":0.0014197775,"MEAN_MOTION_DOT":0.00084545,"MEAN_MOTION_DDOT":0},{"OBJECT_NAME":"STARLINK-1365","OBJECT_ID":"2020-025BM","EPOCH":"2026-03-17T05:34:33.394080","MEAN_MOTION":15.46626051,"ECCENTRICITY":0.00044859,"INCLINATION":53.052,"RA_OF_ASC_NODE":57.5688,"ARG_OF_PERICENTER":71.8426,"MEAN_ANOMALY":288.3069,"EPHEMERIS_TYPE":0,"CLASSIFICATION_TYPE":"U","NORAD_CAT_ID":45590,"ELEMENT_SET_NO":999,"REV_AT_EPOCH":32645,"BSTAR":0.0013806519,"MEAN_MOTION_DOT":0.00070155,"MEAN_MOTION_DDOT":0},{"OBJECT_NAME":"STARLINK-1443","OBJECT_ID":"2020-035D","EPOCH":"2026-03-17T13:50:47.339520","MEAN_MOTION":15.25903314,"ECCENTRICITY":0.0003397,"INCLINATION":53.1378,"RA_OF_ASC_NODE":28.5164,"ARG_OF_PERICENTER":87.8351,"MEAN_ANOMALY":272.3037,"EPHEMERIS_TYPE":0,"CLASSIFICATION_TYPE":"U","NORAD_CAT_ID":45660,"ELEMENT_SET_NO":999,"REV_AT_EPOCH":31996,"BSTAR":0.0018126314,"MEAN_MOTION_DOT":0.00047046,"MEAN_MOTION_DDOT":0},{"OBJECT_NAME":"STARLINK-1446","OBJECT_ID":"2020-035G","EPOCH":"2026-03-17T09:20:13.479360","MEAN_MOTION":15.43228213,"ECCENTRICITY":5.415e-5,"INCLINATION":53.0248,"RA_OF_ASC_NODE":322.7947,"ARG_OF_PERICENTER":333.2655,"MEAN_ANOMALY":26.8321,"EPHEMERIS_TYPE":0,"CLASSIFICATION_TYPE":"U","NORAD_CAT_ID":45663,"ELEMENT_SET_NO":999,"REV_AT_EPOCH":32086,"BSTAR":0.00029892067,"MEAN_MOTION_DOT":0.00013091,"MEAN_MOTION_DDOT":0},{"OBJECT_NAME":"STARLINK-1448","OBJECT_ID":"2020-035J","EPOCH":"2026-03-17T08:56:22.851744","MEAN_MOTION":15.54096136,"ECCENTRICITY":0.00080078,"INCLINATION":53.0509,"RA_OF_ASC_NODE":15.691,"ARG_OF_PERICENTER":109.7964,"MEAN_ANOMALY":250.391,"EPHEMERIS_TYPE":0,"CLASSIFICATION_TYPE":"U","NORAD_CAT_ID":45665,"ELEMENT_SET_NO":999,"REV_AT_EPOCH":32011,"BSTAR":0.001526046,"MEAN_MOTION_DOT":0.00101709,"MEAN_MOTION_DDOT":0},{"OBJECT_NAME":"STARLINK-1451","OBJECT_ID":"2020-035M","EPOCH":"2026-03-17T03:48:20.670048","MEAN_MOTION":15.10513439,"ECCENTRICITY":0.00020286,"INCLINATION":53.0542,"RA_OF_ASC_NODE":32.329,"ARG_OF_PERICENTER":61.9312,"MEAN_ANOMALY":298.1884,"EPHEMERIS_TYPE":0,"CLASSIFICATION_TYPE":"U","NORAD_CAT_ID":45668,"ELEMENT_SET_NO":999,"REV_AT_EPOCH":31987,"BSTAR":0.0016663255,"MEAN_MOTION_DOT":0.00027587,"MEAN_MOTION_DDOT":0},{"OBJECT_NAME":"STARLINK-1452","OBJECT_ID":"2020-035N","EPOCH":"2026-03-17T10:32:36.667392","MEAN_MOTION":15.46434987,"ECCENTRICITY":0.00068428,"INCLINATION":53.0323,"RA_OF_ASC_NODE":344.7686,"ARG_OF_PERICENTER":88.5982,"MEAN_ANOMALY":271.5808,"EPHEMERIS_TYPE":0,"CLASSIFICATION_TYPE":"U","NORAD_CAT_ID":45669,"ELEMENT_SET_NO":999,"REV_AT_EPOCH":32056,"BSTAR":0.0015051737,"MEAN_MOTION_DOT":0.00076111,"MEAN_MOTION_DDOT":0},{"OBJECT_NAME":"STARLINK-1453","OBJECT_ID":"2020-035P","EPOCH":"2026-03-17T10:14:23.801568","MEAN_MOTION":15.54361494,"ECCENTRICITY":0.00056971,"INCLINATION":53.0477,"RA_OF_ASC_NODE":336.0076,"ARG_OF_PERICENTER":85.0852,"MEAN_ANOMALY":275.0808,"EPHEMERIS_TYPE":0,"CLASSIFICATION_TYPE":"U","NORAD_CAT_ID":45670,"ELEMENT_SET_NO":999,"REV_AT_EPOCH":32057,"BSTAR":0.0014999095,"MEAN_MOTION_DOT":0.00100862,"MEAN_MOTION_DDOT":0},{"OBJECT_NAME":"STARLINK-1454","OBJECT_ID":"2020-035Q","EPOCH":"2026-03-17T16:00:01.999584","MEAN_MOTION":15.52818888,"ECCENTRICITY":0.00083293,"INCLINATION":53.0504,"RA_OF_ASC_NODE":14.4713,"ARG_OF_PERICENTER":94.5924,"MEAN_ANOMALY":235.2193,"EPHEMERIS_TYPE":0,"CLASSIFICATION_TYPE":"U","NORAD_CAT_ID":45671,"ELEMENT_SET_NO":999,"REV_AT_EPOCH":587,"BSTAR":0.0019069997,"MEAN_MOTION_DOT":0.00121761,"MEAN_MOTION_DDOT":0},{"OBJECT_NAME":"STARLINK-1456","OBJECT_ID":"2020-035S","EPOCH":"2026-03-17T02:17:52.358496","MEAN_MOTION":15.51118377,"ECCENTRICITY":0.00023065,"INCLINATION":53.05,"RA_OF_ASC_NODE":10.759,"ARG_OF_PERICENTER":135.3603,"MEAN_ANOMALY":224.7592,"EPHEMERIS_TYPE":0,"CLASSIFICATION_TYPE":"U","NORAD_CAT_ID":45673,"ELEMENT_SET_NO":999,"REV_AT_EPOCH":32017,"BSTAR":0.0012020601,"MEAN_MOTION_DOT":0.00071484,"MEAN_MOTION_DDOT":0},{"OBJECT_NAME":"STARLINK-1457","OBJECT_ID":"2020-035T","EPOCH":"2026-03-17T16:00:01.999584","MEAN_MOTION":15.80870634,"ECCENTRICITY":0.00078858,"INCLINATION":53.0468,"RA_OF_ASC_NODE":342.4162,"ARG_OF_PERICENTER":104.2619,"MEAN_ANOMALY":54.627,"EPHEMERIS_TYPE":0,"CLASSIFICATION_TYPE":"U","NORAD_CAT_ID":45674,"ELEMENT_SET_NO":999,"REV_AT_EPOCH":594,"BSTAR":0.00057661771,"MEAN_MOTION_DOT":0.00114845,"MEAN_MOTION_DDOT":0}]
